satname,norad_id,inclination_deg,eccentricity,mean_motion_rev_per_day,perigee_km,apogee_km,l1,l2
STARLINK-1234,45190,53.0397,0.0004861,15.73480134,345.6895759466124,352.2296592782559,1 45190U 20012N   26151.75116625  .00091649  00000+0  64213-3 0  9999,2 45190  53.0397 275.5921 0004861 226.3282 133.7333 15.73480134348917
STARLINK-1269,45197,53.157,0.0002244,15.34260149,461.58376059252987,464.65411625769593,1 45197U 20012V   26151.62671178  .00055779  00000+0  16570-2 0  9997,2 45197  53.1570  13.5764 0002244 106.6625 253.4624 15.34260149347626
STARLINK-1154,45198,53.0426,8.25e-05,15.63112019,378.11659286304985,379.2314666829616,1 45198U 20012W   26151.69099855  .00043393  00000+0  47058-3 0  9996,2 45198  53.0426 329.7349 0000825 345.7462  14.3528 15.63112019348199
STARLINK-1199,45201,53.1566,0.0001585,15.3420668,462.19352406163034,464.36225258122704,1 45201U 20012Z   26151.72793677  .00044499  00000+0  13285-2 0  9990,2 45201  53.1566 357.3690 0001585 176.2424 183.8591 15.34206680347888
STARLINK-1209,45206,53.0392,0.0007864,15.65053049,367.77703366976857,378.3953575117939,1 45206U 20012AE  26151.79044166  .00058173  00000+0  58079-3 0  9999,2 45206  53.0392 289.5686 0007864 209.1395 150.9182 15.65053049347872
STARLINK-1231,45212,53.0404,0.000365,15.27297034,481.39188661748176,486.4011710935456,1 45212U 20012AL  26151.54824394  .00044306  00000+0  16380-2 0  9999,2 45212  53.0404 353.2254 0003650  70.5787 289.5605 15.27297034347867
STARLINK-1271,45217,53.1568,0.0001378,15.3444059,461.6399496715803,463.52525199357024,1 45217U 20012AR  26151.72632699  .00054315  00000+0  16050-2 0  9994,2 45217  53.1568 357.5067 0001378 190.2719 169.8255 15.34440590347881
STARLINK-1191,45222,53.1552,0.0003239,15.3836641,448.7276330829163,453.15150888559947,1 45222U 20012AW  26151.72480110  .00064539  00000+0  16769-2 0  9995,2 45222  53.1552 330.7187 0003239 174.6170 185.4870 15.38366410348263
STARLINK-1212,45223,53.0406,0.0002258,15.66346036,367.84676487495653,370.8939391951353,1 45223U 20012AX  26151.87807819  .00058343  00000+0  55387-3 0  9997,2 45223  53.0406 304.8115 0002258 115.7278 244.3970 15.66346036348628
STARLINK-1215,45225,53.1564,0.0001733,15.34516259,461.1722580408177,463.54317350930523,1 45225U 20012AZ  26151.72603975  .00055762  00000+0  16432-2 0  9999,2 45225  53.1564 331.7803 0001733 216.6838 143.4046 15.34516259348207
STARLINK-1221,45227,53.0642,0.0002054,15.4458733,431.1919677111,433.98981472881314,1 45227U 20012BB  26151.60749508  .00019953  00000+0  43028-3 0  9995,2 45227  53.0642 235.8530 0002054 288.1320  71.9462 15.44587330349514
STARLINK-1222,45228,53.0545,0.0001453,15.54617645,402.2789783492781,404.2496535716955,1 45228U 20012BC  26151.68855713  .00041799  00000+0  62489-3 0  9995,2 45228  53.0545 303.3458 0001453  11.3309 348.7734 15.54617645348512
STARLINK-1226,45229,53.1564,0.0002204,15.4319292,435.19101129203864,438.19498835596096,1 45229U 20012BD  26151.73076005  .00068886  00000+0  15245-2 0  9994,2 45229  53.1564 328.2482 0002204 211.2422 148.8454 15.43192920348194
STARLINK-1227,45230,53.1542,0.000264,15.43294049,434.59625184712786,438.1943248953885,1 45230U 20012BE  26151.67636632  .00072920  00000+0  16069-2 0  9996,2 45230  53.1542 328.6209 0002640 200.4364 159.6537 15.43294049348302
STARLINK-1246,45235,53.157,0.0003044,15.3426212,461.0306027898623,465.19555583814963,1 45235U 20012BK  26151.04694102  .00050266  00000+0  14953-2 0  9997,2 45235  53.1570  15.9110 0003044 158.3953 201.7178 15.34262120347594
STARLINK-1270,45237,53.0419,0.0001254,15.60956592,384.04455280915226,385.740720642043,1 45237U 20012BM  26151.80626281  .00111804  00000+0  12973-2 0  9992,2 45237  53.0419 306.2947 0001254 214.3158 145.7774 15.60956592348594
STARLINK-1279,45360,53.0377,0.0008056,15.73437328,343.6621786601472,354.5010733103354,1 45360U 20019A   26150.96664257  .00088854  00000+0  62331-3 0  9999,2 45360  53.0377  54.2725 0008056  87.0286 273.1653 15.73437328343561
STARLINK-1301,45361,53.0375,0.0005511,15.75772537,338.73002928522146,346.13744235024024,1 45361U 20019B   26150.95607729  .00095140  00000+0  60312-3 0  9993,2 45361  53.0375  57.0944 0005511 108.9067 251.2550 15.75772537343533
STARLINK-1262,45366,53.1519,0.0004067,15.33254085,463.3277063696305,468.8948179060535,1 45366U 20019G   26151.27361395  .00068673  00000+0  20994-2 0  9992,2 45366  53.1519 141.2525 0004067  44.8463 315.2867 15.33254085342407
STARLINK-1273,45367,53.0435,0.0005734,15.5614865,394.92979492840004,402.701604284307,1 45367U 20019H   26151.17974709  .00121207  00000+0  16823-2 0  9990,2 45367  53.0435 118.7705 0005734  34.3372 325.8008 15.56148650342698
STARLINK-1277,45369,53.0415,0.0005889,15.62938264,375.19541845197364,383.1541802892716,1 45369U 20019K   26151.86977522  .00112252  00000+0  12054-2 0  9996,2 45369  53.0415 109.8055 0005889  25.8514 334.2792 15.62938264342881
STARLINK-1281,45370,53.1569,0.0005312,15.341479,459.8183847246073,467.0868895551048,1 45370U 20019L   26151.35505582  .00058066  00000+0  17296-2 0  9990,2 45370  53.1569 140.5519 0005312  44.0628 316.0797 15.34147900342422
STARLINK-1300,45374,53.1577,0.0004779,15.34588748,458.87332939854696,465.41126835241175,1 45374U 20019Q   26151.36939391  .00070097  00000+0  20536-2 0  9993,2 45374  53.1577 140.4127 0004779  57.2960 302.8503 15.34588748342427
STARLINK-1302,45375,53.0455,0.0005545,15.66562395,365.00792084892237,372.49021749963686,1 45375U 20019R   26151.87986086  .00057819  00000+0  54393-3 0  9999,2 45375  53.0455 105.9963 0005545  46.9895 313.1584 15.66562395342935
STARLINK-1304,45376,53.0416,0.0005796,15.6188666,378.28925422488555,386.12584562715983,1 45376U 20019S   26151.86048183  .00054021  00000+0  61174-3 0  9993,2 45376  53.0416 107.1703 0005796  51.2485 308.9045 15.61886660342912
STARLINK-1305,45377,53.0381,0.0001799,15.70405989,356.5240483944435,358.9476154393669,1 45377U 20019T   26151.08933545  .00074120  00000+0  59371-3 0  9991,2 45377  53.0381  89.9744 0001799 162.3971 197.7108 15.70405989343094
STARLINK-1319,45379,53.0383,0.0004082,15.76107421,338.73878325525675,344.224679987753,1 45379U 20019V   26151.84661775  .00091329  00000+0  57116-3 0  9995,2 45379  53.0383  78.2255 0004082  68.4668 291.6786 15.76107421343321
STARLINK-1266,45383,53.0455,0.0001552,15.65100306,371.90252749721367,373.998064993968,1 45383U 20019Z   26151.82773940  .00052859  00000+0  52829-3 0  9997,2 45383  53.0455  92.4501 0001552 117.0409 243.0764 15.65100306343118
STARLINK-1267,45384,53.0441,0.0007181,15.64531871,369.7362973217323,379.43455727181663,1 45384U 20019AA  26151.09059847  .00110691  00000+0  11163-2 0  9994,2 45384  53.0441  87.2687 0007181  81.9658 278.2171 15.64531871343127
STARLINK-1272,45386,53.0399,0.0007781,15.6883748,356.9800503324059,367.4694012500822,1 45386U 20019AC  26151.77000422  .00072318  00000+0  61746-3 0  9992,2 45386  53.0399  62.9376 0007781  71.1662 289.0197 15.68837480343529
STARLINK-1274,45387,53.0219,0.0008639,15.602283,381.1526633106341,392.84146194404093,1 45387U 20019AD  26151.05562896  .00112444  00000+0  13395-2 0  9993,2 45387  53.0219  65.2294 0008639 102.7099 257.4879 15.60228300343426
STARLINK-1280,45388,53.0377,0.0004968,15.76661214,336.5706302274966,343.24567989356547,1 45388U 20019AE  26150.97285207  .00098744  00000+0  60168-3 0  9999,2 45388  53.0377  74.9956 0004968  83.6624 276.4961 15.76661214343274
STARLINK-1283,45389,53.0407,0.0003911,15.69965084,356.3620034216974,361.6317895555312,1 45389U 20019AF  26150.96651800  .00069176  00000+0  56486-3 0  9990,2 45389  53.0407  66.0705 0003911  96.7193 263.4269 15.69965084343413
STARLINK-1284,45390,53.0406,0.0004892,15.68780237,359.0912250297206,365.68615536500965,1 45390U 20019AG  26150.14964790  .00077663  00000+0  66448-3 0  9996,2 45390  53.0406  93.9138 0004892  21.9375 338.1849 15.68780237342949
STARLINK-1297,45395,53.0416,0.0006492,15.67379267,362.02612325458085,370.78323617152,1 45395U 20019AM  26151.81322140  .00067057  00000+0  60869-3 0  9990,2 45395  53.0416  84.6500 0006492  36.5200 323.6257 15.67379267342401
STARLINK-1307,45397,53.0523,0.0002707,15.55971694,397.49484470542575,401.1641650711708,1 45397U 20019AP  26151.10858205  .00045492  00000+0  64621-3 0  9999,2 45397  53.0523  93.3650 0002707  73.3814 286.7494 15.55971694342861
STARLINK-1255,45399,53.0353,0.0005553,15.64995947,369.50137039348647,376.99946125750193,1 45399U 20019AR  26151.76768971  .00057271  00000+0  57365-3 0  9998,2 45399  53.0353  58.5228 0005553  93.5217 266.6433 15.64995947343397
STARLINK-1260,45404,53.1553,0.0005581,15.37000242,451.17210491386413,458.79923643887196,1 45404U 20019AW  26151.86710023  .00060631  00000+0  16477-2 0  9993,2 45404  53.1553 101.0121 0005581  60.7571 299.3990 15.37000242342736
STARLINK-1263,45405,53.1568,0.0004644,15.34207851,460.09725567642727,466.4515585913732,1 45405U 20019AX  26151.10823002  .00052060  00000+0  15503-2 0  9999,2 45405  53.1568 105.6813 0004644  74.9695 285.1821 15.34207851342608
STARLINK-1265,45406,53.1566,0.0005231,15.37400603,450.2255383549027,457.3731101373296,1 45406U 20019AY  26151.86125816  .00065051  00000+0  17434-2 0  9990,2 45406  53.1566 101.0473 0005231  53.5341 306.6144 15.37400603342737
STARLINK-1278,45408,53.0396,0.000679,15.68209389,359.4464210053893,368.6022761167351,1 45408U 20019BA  26151.07902529  .00064759  00000+0  56858-3 0  9997,2 45408  53.0396  87.2523 0006790  57.2834 302.8835 15.68209389342848
STARLINK-1296,45412,53.1551,0.000603,15.37615991,449.0420284108368,457.2805741621878,1 45412U 20019BE  26151.83688139  .00060146  00000+0  16024-2 0  9990,2 45412  53.1551 100.8640 0006030  51.1085 309.0456 15.37615991342739
STARLINK-1309,45414,53.0606,0.0006396,15.67423681,361.96354433877514,370.59099907514155,1 45414U 20019BG  26151.79602929  .00063307  00000+0  57419-3 0  9996,2 45414  53.0606  77.5918 0006396  34.0917 326.0508 15.67423681343024
